[{"typeName":"散台","id":"9800000000008268","mincapacity":0,"maxcapacity":0,"defcapacity":2,"areaname":"大厅","typeid":"101","name":"零零壹","areacode":"01","areaid":"9800000000005141","code":"001"},{"typeName":"散台","id":"9800000000008269","mincapacity":0,"maxcapacity":0,"defcapacity":2,"areaname":"大厅","typeid":"101","name":"002","areacode":"01","areaid":"9800000000005141","code":"002"},{"typeName":"散台","id":"9800000000008270","mincapacity":0,"maxcapacity":0,"defcapacity":2,"areaname":"大厅","typeid":"101","name":"003","areacode":"01","areaid":"9800000000005141","code":"003"},{"typeName":"散台","id":"9800000000008271","mincapacity":0,"maxcapacity":0,"defcapacity":2,"areaname":"大厅","typeid":"101","name":"004","areacode":"01","areaid":"9800000000005141","code":"004"},{"typeName":"散台","id":"9800000000008272","mincapacity":0,"maxcapacity":0,"defcapacity":2,"areaname":"大厅","typeid":"101","name":"005","areacode":"01","areaid":"9800000000005141","code":"005"},{"typeName":"散台","id":"9800000000008273","mincapacity":0,"maxcapacity":0,"defcapacity":2,"areaname":"大厅","typeid":"101","name":"006","areacode":"01","areaid":"9800000000005141","code":"006"},{"typeName":"散台","id":"9800000000008274","mincapacity":0,"maxcapacity":0,"defcapacity":2,"areaname":"大厅","typeid":"101","name":"007","areacode":"01","areaid":"9800000000005141","code":"007"},{"typeName":"散台","id":"9800000000008275","mincapacity":0,"maxcapacity":0,"defcapacity":2,"areaname":"大厅","typeid":"101","name":"008","areacode":"01","areaid":"9800000000005141","code":"008"},{"typeName":"散台","id":"9800000000008276","mincapacity":0,"maxcapacity":0,"defcapacity":2,"areaname":"大厅","typeid":"101","name":"009","areacode":"01","areaid":"9800000000005141","code":"009"},{"typeName":"散台","id":"9800000000008277","mincapacity":0,"maxcapacity":0,"defcapacity":2,"areaname":"大厅","typeid":"101","name":"010","areacode":"01","areaid":"9800000000005141","code":"010"},{"typeName":"散台","id":"9800000000008781","mincapacity":0,"maxcapacity":0,"defcapacity":2,"areaname":"大厅","typeid":"101","name":"011","areacode":"01","areaid":"9800000000005141","code":"011"},{"typeName":"大厅","id":"9800000000008782","mincapacity":0,"maxcapacity":0,"defcapacity":6,"areaname":"大厅","typeid":"9800000000005023","name":"012","areacode":"01","areaid":"9800000000005141","code":"012"},{"typeName":"大厅","id":"9800000000008783","mincapacity":0,"maxcapacity":0,"defcapacity":2,"areaname":"大厅","typeid":"9800000000005023","name":"013","areacode":"01","areaid":"9800000000005141","code":"013"},{"typeName":"大厅","id":"9800000000008784","mincapacity":0,"maxcapacity":0,"defcapacity":2,"areaname":"大厅","typeid":"9800000000005023","name":"014","areacode":"01","areaid":"9800000000005141","code":"014"},{"typeName":"大厅","id":"9800000000008785","mincapacity":0,"maxcapacity":0,"defcapacity":2,"areaname":"大厅","typeid":"9800000000005023","name":"015","areacode":"01","areaid":"9800000000005141","code":"015"},{"typeName":"大厅","id":"9800000000008786","mincapacity":0,"maxcapacity":0,"defcapacity":2,"areaname":"大厅","typeid":"9800000000005023","name":"016","areacode":"01","areaid":"9800000000005141","code":"016"},{"typeName":"大厅","id":"9800000000008787","mincapacity":0,"maxcapacity":0,"defcapacity":2,"areaname":"大厅","typeid":"9800000000005023","name":"017","areacode":"01","areaid":"9800000000005141","code":"017"},{"typeName":"散座","id":"9800000000008788","mincapacity":0,"maxcapacity":0,"defcapacity":2,"areaname":"大厅","typeid":"9800000000000062","name":"018","areacode":"01","areaid":"9800000000005141","code":"018"},{"typeName":"大厅","id":"9800000000008789","mincapacity":0,"maxcapacity":0,"defcapacity":6,"areaname":"大厅","typeid":"9800000000005023","name":"019","areacode":"01","areaid":"9800000000005141","code":"019"},{"typeName":"大厅","id":"9800000000008790","mincapacity":0,"maxcapacity":0,"defcapacity":2,"areaname":"大厅","typeid":"9800000000005023","name":"020","areacode":"01","areaid":"9800000000005141","code":"020"},{"typeName":"大厅","id":"9800000000008791","mincapacity":0,"maxcapacity":0,"defcapacity":2,"areaname":"大厅","typeid":"9800000000005023","name":"021","areacode":"01","areaid":"9800000000005141","code":"021"},{"typeName":"大厅","id":"9800000000008792","mincapacity":0,"maxcapacity":0,"defcapacity":2,"areaname":"大厅","typeid":"9800000000005023","name":"022","areacode":"01","areaid":"9800000000005141","code":"022"},{"typeName":"大厅","id":"9800000000008793","mincapacity":0,"maxcapacity":0,"defcapacity":2,"areaname":"大厅","typeid":"9800000000005023","name":"023","areacode":"01","areaid":"9800000000005141","code":"023"},{"typeName":"大厅","id":"9800000000008794","mincapacity":0,"maxcapacity":0,"defcapacity":2,"areaname":"大厅","typeid":"9800000000005023","name":"024","areacode":"01","areaid":"9800000000005141","code":"024"},{"typeName":"大厅","id":"9800000000008795","mincapacity":0,"maxcapacity":0,"defcapacity":2,"areaname":"大厅","typeid":"9800000000005023","name":"025","areacode":"01","areaid":"9800000000005141","code":"025"},{"typeName":"散座","id":"9800000000008796","mincapacity":0,"maxcapacity":0,"defcapacity":2,"areaname":"大厅","typeid":"9800000000000062","name":"026","areacode":"01","areaid":"9800000000005141","code":"026"},{"typeName":"包间","id":"9800000000008797","mincapacity":0,"maxcapacity":0,"defcapacity":2,"areaname":"大厅","typeid":"102","name":"027","areacode":"01","areaid":"9800000000005141","code":"027"},{"typeName":"包间","id":"9800000000008798","mincapacity":0,"maxcapacity":0,"defcapacity":2,"areaname":"大厅","typeid":"102","name":"028","areacode":"01","areaid":"9800000000005141","code":"028"},{"typeName":"包间","id":"9800000000008799","mincapacity":0,"maxcapacity":0,"defcapacity":2,"areaname":"大厅","typeid":"102","name":"029","areacode":"01","areaid":"9800000000005141","code":"029"},{"typeName":"外送","id":"9800000000008800","mincapacity":0,"maxcapacity":0,"defcapacity":2,"areaname":"大厅","typeid":"9800000000000061","name":"030","areacode":"01","areaid":"9800000000005141","code":"030"},{"typeName":"包间","id":"9800000000008801","mincapacity":0,"maxcapacity":0,"defcapacity":2,"areaname":"大厅","typeid":"102","name":"031","areacode":"01","areaid":"9800000000005141","code":"031"},{"typeName":"包间","id":"9800000000008802","mincapacity":0,"maxcapacity":0,"defcapacity":2,"areaname":"大厅","typeid":"102","name":"032","areacode":"01","areaid":"9800000000005141","code":"032"},{"typeName":"包间","id":"9800000000008803","mincapacity":0,"maxcapacity":0,"defcapacity":2,"areaname":"大厅","typeid":"102","name":"033","areacode":"01","areaid":"9800000000005141","code":"033"},{"typeName":"大厅","id":"9800000000008804","mincapacity":0,"maxcapacity":0,"defcapacity":2,"areaname":"大厅","typeid":"9800000000005023","name":"034","areacode":"01","areaid":"9800000000005141","code":"034"},{"typeName":"大厅","id":"9800000000008805","mincapacity":0,"maxcapacity":0,"defcapacity":2,"areaname":"大厅","typeid":"9800000000005023","name":"035","areacode":"01","areaid":"9800000000005141","code":"035"},{"typeName":"大厅","id":"9800000000008806","mincapacity":0,"maxcapacity":0,"defcapacity":2,"areaname":"大厅","typeid":"9800000000005023","name":"036","areacode":"01","areaid":"9800000000005141","code":"036"},{"typeName":"大厅","id":"9800000000008807","mincapacity":0,"maxcapacity":0,"defcapacity":2,"areaname":"大厅","typeid":"9800000000005023","name":"037","areacode":"01","areaid":"9800000000005141","code":"037"},{"typeName":"散座","id":"9800000000008808","mincapacity":0,"maxcapacity":0,"defcapacity":2,"areaname":"大厅","typeid":"9800000000000062","name":"038","areacode":"01","areaid":"9800000000005141","code":"038"},{"typeName":"散台","id":"9800000000008809","mincapacity":0,"maxcapacity":0,"defcapacity":2,"areaname":"大厅","typeid":"101","name":"039","areacode":"01","areaid":"9800000000005141","code":"039"},{"typeName":"散台","id":"9800000000008810","mincapacity":0,"maxcapacity":0,"defcapacity":2,"areaname":"大厅","typeid":"101","name":"040","areacode":"01","areaid":"9800000000005141","code":"040"},{"typeName":"散台","id":"9800000000008811","mincapacity":0,"maxcapacity":0,"defcapacity":2,"areaname":"大厅","typeid":"101","name":"041","areacode":"01","areaid":"9800000000005141","code":"041"},{"typeName":"散台","id":"9800000000008812","mincapacity":0,"maxcapacity":0,"defcapacity":2,"areaname":"大厅","typeid":"101","name":"042","areacode":"01","areaid":"9800000000005141","code":"042"},{"typeName":"散台","id":"9800000000008813","mincapacity":0,"maxcapacity":0,"defcapacity":2,"areaname":"大厅","typeid":"101","name":"043","areacode":"01","areaid":"9800000000005141","code":"043"},{"typeName":"散台","id":"9800000000008814","mincapacity":0,"maxcapacity":0,"defcapacity":2,"areaname":"大厅","typeid":"101","name":"044","areacode":"01","areaid":"9800000000005141","code":"044"},{"typeName":"散台","id":"9800000000008815","mincapacity":0,"maxcapacity":0,"defcapacity":2,"areaname":"大厅","typeid":"101","name":"045","areacode":"01","areaid":"9800000000005141","code":"045"},{"typeName":"散台","id":"9800000000008816","mincapacity":0,"maxcapacity":0,"defcapacity":2,"areaname":"大厅","typeid":"101","name":"046","areacode":"01","areaid":"9800000000005141","code":"046"},{"typeName":"散台","id":"9800000000008817","mincapacity":0,"maxcapacity":0,"defcapacity":2,"areaname":"大厅","typeid":"101","name":"047","areacode":"01","areaid":"9800000000005141","code":"047"},{"typeName":"包间","id":"9800000000008818","mincapacity":0,"maxcapacity":0,"defcapacity":2,"areaname":"大厅","typeid":"102","name":"048","areacode":"01","areaid":"9800000000005141","code":"048"},{"typeName":"散台","id":"9800000000008819","mincapacity":0,"maxcapacity":0,"defcapacity":2,"areaname":"大厅","typeid":"101","name":"049","areacode":"01","areaid":"9800000000005141","code":"049"},{"typeName":"散台","id":"9800000000008820","mincapacity":0,"maxcapacity":0,"defcapacity":2,"areaname":"大厅","typeid":"101","name":"050","areacode":"01","areaid":"9800000000005141","code":"050"},{"typeName":"散台","id":"9800000000008821","mincapacity":0,"maxcapacity":0,"defcapacity":2,"areaname":"大厅","typeid":"101","name":"051","areacode":"01","areaid":"9800000000005141","code":"051"},{"typeName":"散台","id":"9800000000008822","mincapacity":0,"maxcapacity":0,"defcapacity":2,"areaname":"大厅","typeid":"101","name":"052","areacode":"01","areaid":"9800000000005141","code":"052"},{"typeName":"散台","id":"9800000000008823","mincapacity":0,"maxcapacity":0,"defcapacity":2,"areaname":"大厅","typeid":"101","name":"053","areacode":"01","areaid":"9800000000005141","code":"053"},{"typeName":"散台","id":"9800000000008824","mincapacity":0,"maxcapacity":0,"defcapacity":2,"areaname":"大厅","typeid":"101","name":"054","areacode":"01","areaid":"9800000000005141","code":"054"},{"typeName":"散台","id":"9800000000008825","mincapacity":0,"maxcapacity":0,"defcapacity":2,"areaname":"大厅","typeid":"101","name":"055","areacode":"01","areaid":"9800000000005141","code":"055"},{"typeName":"散台","id":"9800000000008826","mincapacity":0,"maxcapacity":0,"defcapacity":2,"areaname":"大厅","typeid":"101","name":"056","areacode":"01","areaid":"9800000000005141","code":"056"},{"typeName":"散台","id":"9800000000008827","mincapacity":0,"maxcapacity":0,"defcapacity":2,"areaname":"大厅","typeid":"101","name":"057","areacode":"01","areaid":"9800000000005141","code":"057"},{"typeName":"散台","id":"9800000000008828","mincapacity":0,"maxcapacity":0,"defcapacity":2,"areaname":"大厅","typeid":"101","name":"058","areacode":"01","areaid":"9800000000005141","code":"058"},{"typeName":"散台","id":"9800000000008829","mincapacity":0,"maxcapacity":0,"defcapacity":2,"areaname":"大厅","typeid":"101","name":"059","areacode":"01","areaid":"9800000000005141","code":"059"},{"typeName":"包间","id":"9800000000008830","mincapacity":0,"maxcapacity":0,"defcapacity":2,"areaname":"大厅","typeid":"102","name":"060","areacode":"01","areaid":"9800000000005141","code":"060"},{"typeName":"包间","id":"9800000000008831","mincapacity":0,"maxcapacity":0,"defcapacity":2,"areaname":"大厅","typeid":"102","name":"061","areacode":"01","areaid":"9800000000005141","code":"061"},{"typeName":"散台","id":"9800000000008870","mincapacity":0,"maxcapacity":0,"defcapacity":2,"areaname":"大厅","typeid":"101","name":"062","areacode":"01","areaid":"9800000000005141","code":"062"},{"typeName":"散台","id":"9800000000008871","mincapacity":0,"maxcapacity":0,"defcapacity":2,"areaname":"大厅","typeid":"101","name":"063","areacode":"01","areaid":"9800000000005141","code":"063"},{"typeName":"散台","id":"9800000000008872","mincapacity":0,"maxcapacity":0,"defcapacity":2,"areaname":"大厅","typeid":"101","name":"064","areacode":"01","areaid":"9800000000005141","code":"064"},{"typeName":"散台","id":"9800000000008873","mincapacity":0,"maxcapacity":0,"defcapacity":2,"areaname":"大厅","typeid":"101","name":"065","areacode":"01","areaid":"9800000000005141","code":"065"},{"typeName":"散台","id":"9800000000008874","mincapacity":0,"maxcapacity":0,"defcapacity":2,"areaname":"大厅","typeid":"101","name":"066","areacode":"01","areaid":"9800000000005141","code":"066"},{"typeName":"散台","id":"9800000000008875","mincapacity":0,"maxcapacity":0,"defcapacity":2,"areaname":"大厅","typeid":"101","name":"067","areacode":"01","areaid":"9800000000005141","code":"067"},{"typeName":"散台","id":"9800000000008876","mincapacity":0,"maxcapacity":0,"defcapacity":2,"areaname":"大厅","typeid":"101","name":"068","areacode":"01","areaid":"9800000000005141","code":"068"},{"typeName":"散台","id":"9800000000008877","mincapacity":0,"maxcapacity":0,"defcapacity":2,"areaname":"大厅","typeid":"101","name":"069","areacode":"01","areaid":"9800000000005141","code":"069"},{"typeName":"散台","id":"9800000000008878","mincapacity":0,"maxcapacity":0,"defcapacity":2,"areaname":"大厅","typeid":"101","name":"070","areacode":"01","areaid":"9800000000005141","code":"070"},{"typeName":"散台","id":"9800000000008879","mincapacity":0,"maxcapacity":0,"defcapacity":2,"areaname":"大厅","typeid":"101","name":"071","areacode":"01","areaid":"9800000000005141","code":"071"},{"typeName":"散台","id":"9800000000008880","mincapacity":0,"maxcapacity":0,"defcapacity":2,"areaname":"大厅","typeid":"101","name":"072","areacode":"01","areaid":"9800000000005141","code":"072"},{"typeName":"散台","id":"9800000000008881","mincapacity":0,"maxcapacity":0,"defcapacity":2,"areaname":"大厅","typeid":"101","name":"073","areacode":"01","areaid":"9800000000005141","code":"073"},{"typeName":"散台","id":"9800000000008882","mincapacity":0,"maxcapacity":0,"defcapacity":2,"areaname":"大厅","typeid":"101","name":"074","areacode":"01","areaid":"9800000000005141","code":"074"},{"typeName":"散台","id":"9800000000008883","mincapacity":0,"maxcapacity":0,"defcapacity":2,"areaname":"大厅","typeid":"101","name":"075","areacode":"01","areaid":"9800000000005141","code":"075"},{"typeName":"散台","id":"9800000000008884","mincapacity":0,"maxcapacity":0,"defcapacity":2,"areaname":"大厅","typeid":"101","name":"076","areacode":"01","areaid":"9800000000005141","code":"076"},{"typeName":"散台","id":"9800000000008885","mincapacity":0,"maxcapacity":0,"defcapacity":2,"areaname":"大厅","typeid":"101","name":"077","areacode":"01","areaid":"9800000000005141","code":"077"},{"typeName":"散台","id":"9800000000008886","mincapacity":0,"maxcapacity":0,"defcapacity":2,"areaname":"大厅","typeid":"101","name":"078","areacode":"01","areaid":"9800000000005141","code":"078"},{"typeName":"散台","id":"9800000000008887","mincapacity":0,"maxcapacity":0,"defcapacity":2,"areaname":"大厅","typeid":"101","name":"079","areacode":"01","areaid":"9800000000005141","code":"079"},{"typeName":"散台","id":"9800000000008888","mincapacity":0,"maxcapacity":0,"defcapacity":2,"areaname":"大厅","typeid":"101","name":"080","areacode":"01","areaid":"9800000000005141","code":"080"},{"typeName":"散台","id":"9800000000008889","mincapacity":0,"maxcapacity":0,"defcapacity":2,"areaname":"大厅","typeid":"101","name":"081","areacode":"01","areaid":"9800000000005141","code":"081"},{"typeName":"散台","id":"9800000000008890","mincapacity":0,"maxcapacity":0,"defcapacity":2,"areaname":"大厅","typeid":"101","name":"082","areacode":"01","areaid":"9800000000005141","code":"082"},{"typeName":"散台","id":"9800000000008891","mincapacity":0,"maxcapacity":0,"defcapacity":2,"areaname":"大厅","typeid":"101","name":"083","areacode":"01","areaid":"9800000000005141","code":"083"},{"typeName":"散台","id":"9800000000008892","mincapacity":0,"maxcapacity":0,"defcapacity":2,"areaname":"大厅","typeid":"101","name":"084","areacode":"01","areaid":"9800000000005141","code":"084"},{"typeName":"散台","id":"9800000000008893","mincapacity":0,"maxcapacity":0,"defcapacity":2,"areaname":"大厅","typeid":"101","name":"085","areacode":"01","areaid":"9800000000005141","code":"085"},{"typeName":"散台","id":"9800000000008894","mincapacity":0,"maxcapacity":0,"defcapacity":2,"areaname":"大厅","typeid":"101","name":"086","areacode":"01","areaid":"9800000000005141","code":"086"},{"typeName":"散台","id":"9800000000008895","mincapacity":0,"maxcapacity":0,"defcapacity":2,"areaname":"大厅","typeid":"101","name":"087","areacode":"01","areaid":"9800000000005141","code":"087"},{"typeName":"散台","id":"9800000000008896","mincapacity":0,"maxcapacity":0,"defcapacity":2,"areaname":"大厅","typeid":"101","name":"088","areacode":"01","areaid":"9800000000005141","code":"088"},{"typeName":"散台","id":"9800000000008897","mincapacity":0,"maxcapacity":0,"defcapacity":2,"areaname":"大厅","typeid":"101","name":"089","areacode":"01","areaid":"9800000000005141","code":"089"},{"typeName":"散台","id":"9800000000008898","mincapacity":0,"maxcapacity":0,"defcapacity":2,"areaname":"大厅","typeid":"101","name":"090","areacode":"01","areaid":"9800000000005141","code":"090"},{"typeName":"散台","id":"9800000000008899","mincapacity":0,"maxcapacity":0,"defcapacity":2,"areaname":"大厅","typeid":"101","name":"091","areacode":"01","areaid":"9800000000005141","code":"091"},{"typeName":"散台","id":"9800000000008900","mincapacity":0,"maxcapacity":0,"defcapacity":2,"areaname":"大厅","typeid":"101","name":"092","areacode":"01","areaid":"9800000000005141","code":"092"},{"typeName":"散台","id":"9800000000008901","mincapacity":0,"maxcapacity":0,"defcapacity":2,"areaname":"呵呵","typeid":"101","name":"093","areacode":"09","areaid":"9800000000005194","code":"093"},{"typeName":"散台","id":"9800000000008902","mincapacity":0,"maxcapacity":0,"defcapacity":2,"areaname":"爱咋咋地","typeid":"101","name":"094","areacode":"08","areaid":"9800000000005193","code":"094"},{"typeName":"散台","id":"9800000000008903","mincapacity":0,"maxcapacity":0,"defcapacity":2,"areaname":"不关心","typeid":"101","name":"095","areacode":"07","areaid":"9800000000005192","code":"095"},{"typeName":"散台","id":"9800000000008904","mincapacity":0,"maxcapacity":0,"defcapacity":2,"areaname":"问你呢","typeid":"101","name":"096","areacode":"06","areaid":"9800000000005191","code":"096"},{"typeName":"散台","id":"9800000000008905","mincapacity":0,"maxcapacity":0,"defcapacity":2,"areaname":"谁知道","typeid":"101","name":"097","areacode":"05","areaid":"9800000000005190","code":"097"},{"typeName":"散台","id":"9800000000008906","mincapacity":0,"maxcapacity":0,"defcapacity":2,"areaname":"不好","typeid":"101","name":"098","areacode":"04","areaid":"9800000000005189","code":"098"},{"typeName":"散台","id":"9800000000008907","mincapacity":0,"maxcapacity":0,"defcapacity":2,"areaname":"你好","typeid":"101","name":"099","areacode":"03","areaid":"9800000000005188","code":"099"},{"typeName":"散台","id":"9800000000125279","mincapacity":0,"maxcapacity":0,"defcapacity":2,"areaname":"一菜多价","typeid":"101","name":"C095","areacode":"02","areaid":"9800000000005178","code":"100"},{"typeName":"散台","id":"9800000000153749","mincapacity":0,"maxcapacity":0,"defcapacity":2,"areaname":"大厅","typeid":"101","name":"102","areacode":"01","areaid":"9800000000005141","code":"102"},{"typeName":"散台","id":"9800000000153750","mincapacity":0,"maxcapacity":0,"defcapacity":2,"areaname":"大厅","typeid":"101","name":"103","areacode":"01","areaid":"9800000000005141","code":"103"},{"typeName":"散台","id":"9800000000153751","mincapacity":0,"maxcapacity":0,"defcapacity":2,"areaname":"大厅","typeid":"101","name":"104","areacode":"01","areaid":"9800000000005141","code":"104"},{"typeName":"散台","id":"9800000000153752","mincapacity":0,"maxcapacity":0,"defcapacity":2,"areaname":"大厅","typeid":"101","name":"105","areacode":"01","areaid":"9800000000005141","code":"105"},{"typeName":"散台","id":"9800000000153753","mincapacity":0,"maxcapacity":0,"defcapacity":2,"areaname":"大厅","typeid":"101","name":"106","areacode":"01","areaid":"9800000000005141","code":"106"},{"typeName":"散台","id":"9800000000153754","mincapacity":0,"maxcapacity":0,"defcapacity":2,"areaname":"大厅","typeid":"101","name":"107","areacode":"01","areaid":"9800000000005141","code":"107"},{"typeName":"散台","id":"9800000000153755","mincapacity":0,"maxcapacity":0,"defcapacity":2,"areaname":"大厅","typeid":"101","name":"108","areacode":"01","areaid":"9800000000005141","code":"108"},{"typeName":"散台","id":"9800000000153756","mincapacity":0,"maxcapacity":0,"defcapacity":2,"areaname":"大厅","typeid":"101","name":"109","areacode":"01","areaid":"9800000000005141","code":"109"},{"typeName":"散台","id":"9800000000153757","mincapacity":0,"maxcapacity":0,"defcapacity":2,"areaname":"大厅","typeid":"101","name":"110","areacode":"01","areaid":"9800000000005141","code":"110"},{"typeName":"散台","id":"9800000000153758","mincapacity":0,"maxcapacity":0,"defcapacity":2,"areaname":"大厅","typeid":"101","name":"111","areacode":"01","areaid":"9800000000005141","code":"111"},{"typeName":"散台","id":"9800000000153759","mincapacity":0,"maxcapacity":0,"defcapacity":2,"areaname":"大厅","typeid":"101","name":"112","areacode":"01","areaid":"9800000000005141","code":"112"},{"typeName":"散台","id":"9800000000153760","mincapacity":0,"maxcapacity":0,"defcapacity":2,"areaname":"大厅","typeid":"101","name":"113","areacode":"01","areaid":"9800000000005141","code":"113"},{"typeName":"散台","id":"9800000000153761","mincapacity":0,"maxcapacity":0,"defcapacity":2,"areaname":"大厅","typeid":"101","name":"114","areacode":"01","areaid":"9800000000005141","code":"114"},{"typeName":"散台","id":"9800000000153762","mincapacity":0,"maxcapacity":0,"defcapacity":2,"areaname":"大厅","typeid":"101","name":"115","areacode":"01","areaid":"9800000000005141","code":"115"},{"typeName":"散台","id":"9800000000153763","mincapacity":0,"maxcapacity":0,"defcapacity":2,"areaname":"大厅","typeid":"101","name":"116","areacode":"01","areaid":"9800000000005141","code":"116"},{"typeName":"散台","id":"9800000000153764","mincapacity":0,"maxcapacity":0,"defcapacity":2,"areaname":"大厅","typeid":"101","name":"117","areacode":"01","areaid":"9800000000005141","code":"117"},{"typeName":"散台","id":"9800000000153765","mincapacity":0,"maxcapacity":0,"defcapacity":2,"areaname":"大厅","typeid":"101","name":"118","areacode":"01","areaid":"9800000000005141","code":"118"},{"typeName":"散台","id":"9800000000153766","mincapacity":0,"maxcapacity":0,"defcapacity":2,"areaname":"大厅","typeid":"101","name":"119","areacode":"01","areaid":"9800000000005141","code":"119"},{"typeName":"散台","id":"9800000000153767","mincapacity":0,"maxcapacity":0,"defcapacity":2,"areaname":"大厅","typeid":"101","name":"120","areacode":"01","areaid":"9800000000005141","code":"120"},{"typeName":"散台","id":"9800000000153768","mincapacity":0,"maxcapacity":0,"defcapacity":2,"areaname":"大厅","typeid":"101","name":"121","areacode":"01","areaid":"9800000000005141","code":"121"},{"typeName":"散台","id":"9800000000153769","mincapacity":0,"maxcapacity":0,"defcapacity":2,"areaname":"大厅","typeid":"101","name":"122","areacode":"01","areaid":"9800000000005141","code":"122"},{"typeName":"散台","id":"9800000000153770","mincapacity":0,"maxcapacity":0,"defcapacity":2,"areaname":"大厅","typeid":"101","name":"123","areacode":"01","areaid":"9800000000005141","code":"123"},{"typeName":"散台","id":"9800000000153771","mincapacity":0,"maxcapacity":0,"defcapacity":2,"areaname":"大厅","typeid":"101","name":"124","areacode":"01","areaid":"9800000000005141","code":"124"},{"typeName":"散台","id":"9800000000153772","mincapacity":0,"maxcapacity":0,"defcapacity":2,"areaname":"大厅","typeid":"101","name":"125","areacode":"01","areaid":"9800000000005141","code":"125"},{"typeName":"散台","id":"9800000000153773","mincapacity":0,"maxcapacity":0,"defcapacity":2,"areaname":"大厅","typeid":"101","name":"126","areacode":"01","areaid":"9800000000005141","code":"126"},{"typeName":"散台","id":"9800000000153774","mincapacity":0,"maxcapacity":0,"defcapacity":2,"areaname":"大厅","typeid":"101","name":"127","areacode":"01","areaid":"9800000000005141","code":"127"},{"typeName":"散台","id":"9800000000153775","mincapacity":0,"maxcapacity":0,"defcapacity":2,"areaname":"大厅","typeid":"101","name":"128","areacode":"01","areaid":"9800000000005141","code":"128"},{"typeName":"散台","id":"9800000000153776","mincapacity":0,"maxcapacity":0,"defcapacity":2,"areaname":"大厅","typeid":"101","name":"129","areacode":"01","areaid":"9800000000005141","code":"129"},{"typeName":"散台","id":"9800000000153777","mincapacity":0,"maxcapacity":0,"defcapacity":2,"areaname":"大厅","typeid":"101","name":"130","areacode":"01","areaid":"9800000000005141","code":"130"},{"typeName":"散台","id":"9800000000153778","mincapacity":0,"maxcapacity":0,"defcapacity":2,"areaname":"大厅","typeid":"101","name":"131","areacode":"01","areaid":"9800000000005141","code":"131"},{"typeName":"散台","id":"9800000000153779","mincapacity":0,"maxcapacity":0,"defcapacity":2,"areaname":"大厅","typeid":"101","name":"132","areacode":"01","areaid":"9800000000005141","code":"132"},{"typeName":"散台","id":"9800000000153780","mincapacity":0,"maxcapacity":0,"defcapacity":2,"areaname":"大厅","typeid":"101","name":"133","areacode":"01","areaid":"9800000000005141","code":"133"},{"typeName":"散台","id":"9800000000153781","mincapacity":0,"maxcapacity":0,"defcapacity":2,"areaname":"大厅","typeid":"101","name":"134","areacode":"01","areaid":"9800000000005141","code":"134"},{"typeName":"散台","id":"9800000000153782","mincapacity":0,"maxcapacity":0,"defcapacity":2,"areaname":"大厅","typeid":"101","name":"135","areacode":"01","areaid":"9800000000005141","code":"135"},{"typeName":"散台","id":"9800000000153783","mincapacity":0,"maxcapacity":0,"defcapacity":2,"areaname":"大厅","typeid":"101","name":"136","areacode":"01","areaid":"9800000000005141","code":"136"},{"typeName":"散台","id":"9800000000153784","mincapacity":0,"maxcapacity":0,"defcapacity":2,"areaname":"大厅","typeid":"101","name":"137","areacode":"01","areaid":"9800000000005141","code":"137"},{"typeName":"散台","id":"9800000000153785","mincapacity":0,"maxcapacity":0,"defcapacity":2,"areaname":"大厅","typeid":"101","name":"138","areacode":"01","areaid":"9800000000005141","code":"138"},{"typeName":"散台","id":"9800000000153786","mincapacity":0,"maxcapacity":0,"defcapacity":2,"areaname":"大厅","typeid":"101","name":"139","areacode":"01","areaid":"9800000000005141","code":"139"},{"typeName":"散台","id":"9800000000153787","mincapacity":0,"maxcapacity":0,"defcapacity":2,"areaname":"大厅","typeid":"101","name":"140","areacode":"01","areaid":"9800000000005141","code":"140"},{"typeName":"散台","id":"9800000000153788","mincapacity":0,"maxcapacity":0,"defcapacity":2,"areaname":"大厅","typeid":"101","name":"141","areacode":"01","areaid":"9800000000005141","code":"141"},{"typeName":"散台","id":"9800000000153789","mincapacity":0,"maxcapacity":0,"defcapacity":2,"areaname":"大厅","typeid":"101","name":"142","areacode":"01","areaid":"9800000000005141","code":"142"},{"typeName":"散台","id":"9800000000153790","mincapacity":0,"maxcapacity":0,"defcapacity":2,"areaname":"大厅","typeid":"101","name":"143","areacode":"01","areaid":"9800000000005141","code":"143"},{"typeName":"散台","id":"9800000000153791","mincapacity":0,"maxcapacity":0,"defcapacity":2,"areaname":"大厅","typeid":"101","name":"144","areacode":"01","areaid":"9800000000005141","code":"144"},{"typeName":"散台","id":"9800000000153792","mincapacity":0,"maxcapacity":0,"defcapacity":2,"areaname":"大厅","typeid":"101","name":"145","areacode":"01","areaid":"9800000000005141","code":"145"},{"typeName":"散台","id":"9800000000153793","mincapacity":0,"maxcapacity":0,"defcapacity":2,"areaname":"大厅","typeid":"101","name":"146","areacode":"01","areaid":"9800000000005141","code":"146"},{"typeName":"散台","id":"9800000000153794","mincapacity":0,"maxcapacity":0,"defcapacity":2,"areaname":"大厅","typeid":"101","name":"147","areacode":"01","areaid":"9800000000005141","code":"147"},{"typeName":"散台","id":"9800000000153795","mincapacity":0,"maxcapacity":0,"defcapacity":2,"areaname":"大厅","typeid":"101","name":"148","areacode":"01","areaid":"9800000000005141","code":"148"},{"typeName":"散台","id":"9800000000153796","mincapacity":0,"maxcapacity":0,"defcapacity":2,"areaname":"大厅","typeid":"101","name":"149","areacode":"01","areaid":"9800000000005141","code":"149"},{"typeName":"散台","id":"9800000000153797","mincapacity":0,"maxcapacity":0,"defcapacity":2,"areaname":"大厅","typeid":"101","name":"150","areacode":"01","areaid":"9800000000005141","code":"150"},{"typeName":"散台","id":"9800000000153798","mincapacity":0,"maxcapacity":0,"defcapacity":2,"areaname":"大厅","typeid":"101","name":"151","areacode":"01","areaid":"9800000000005141","code":"151"},{"typeName":"散台","id":"9800000000153799","mincapacity":0,"maxcapacity":0,"defcapacity":2,"areaname":"大厅","typeid":"101","name":"152","areacode":"01","areaid":"9800000000005141","code":"152"},{"typeName":"散台","id":"9800000000153800","mincapacity":0,"maxcapacity":0,"defcapacity":2,"areaname":"大厅","typeid":"101","name":"153","areacode":"01","areaid":"9800000000005141","code":"153"},{"typeName":"散台","id":"9800000000153801","mincapacity":0,"maxcapacity":0,"defcapacity":2,"areaname":"大厅","typeid":"101","name":"154","areacode":"01","areaid":"9800000000005141","code":"154"},{"typeName":"散台","id":"9800000000153802","mincapacity":0,"maxcapacity":0,"defcapacity":2,"areaname":"大厅","typeid":"101","name":"155","areacode":"01","areaid":"9800000000005141","code":"155"},{"typeName":"散台","id":"9800000000153803","mincapacity":0,"maxcapacity":0,"defcapacity":2,"areaname":"大厅","typeid":"101","name":"156","areacode":"01","areaid":"9800000000005141","code":"156"},{"typeName":"散台","id":"9800000000153804","mincapacity":0,"maxcapacity":0,"defcapacity":2,"areaname":"大厅","typeid":"101","name":"157","areacode":"01","areaid":"9800000000005141","code":"157"},{"typeName":"散台","id":"9800000000153805","mincapacity":0,"maxcapacity":0,"defcapacity":2,"areaname":"大厅","typeid":"101","name":"158","areacode":"01","areaid":"9800000000005141","code":"158"},{"typeName":"散台","id":"9800000000153806","mincapacity":0,"maxcapacity":0,"defcapacity":2,"areaname":"大厅","typeid":"101","name":"159","areacode":"01","areaid":"9800000000005141","code":"159"},{"typeName":"散台","id":"9800000000153807","mincapacity":0,"maxcapacity":0,"defcapacity":2,"areaname":"大厅","typeid":"101","name":"160","areacode":"01","areaid":"9800000000005141","code":"160"},{"typeName":"散台","id":"9800000000153808","mincapacity":0,"maxcapacity":0,"defcapacity":2,"areaname":"大厅","typeid":"101","name":"161","areacode":"01","areaid":"9800000000005141","code":"161"},{"typeName":"散台","id":"9800000000153809","mincapacity":0,"maxcapacity":0,"defcapacity":2,"areaname":"大厅","typeid":"101","name":"162","areacode":"01","areaid":"9800000000005141","code":"162"},{"typeName":"散台","id":"9800000000153810","mincapacity":0,"maxcapacity":0,"defcapacity":2,"areaname":"大厅","typeid":"101","name":"163","areacode":"01","areaid":"9800000000005141","code":"163"},{"typeName":"散台","id":"9800000000153811","mincapacity":0,"maxcapacity":0,"defcapacity":2,"areaname":"大厅","typeid":"101","name":"164","areacode":"01","areaid":"9800000000005141","code":"164"},{"typeName":"散台","id":"9800000000153812","mincapacity":0,"maxcapacity":0,"defcapacity":2,"areaname":"大厅","typeid":"101","name":"165","areacode":"01","areaid":"9800000000005141","code":"165"},{"typeName":"散台","id":"9800000000153813","mincapacity":0,"maxcapacity":0,"defcapacity":2,"areaname":"大厅","typeid":"101","name":"166","areacode":"01","areaid":"9800000000005141","code":"166"},{"typeName":"散台","id":"9800000000153814","mincapacity":0,"maxcapacity":0,"defcapacity":2,"areaname":"大厅","typeid":"101","name":"167","areacode":"01","areaid":"9800000000005141","code":"167"},{"typeName":"散台","id":"9800000000153815","mincapacity":0,"maxcapacity":0,"defcapacity":2,"areaname":"大厅","typeid":"101","name":"168","areacode":"01","areaid":"9800000000005141","code":"168"},{"typeName":"散台","id":"9800000000153816","mincapacity":0,"maxcapacity":0,"defcapacity":2,"areaname":"大厅","typeid":"101","name":"169","areacode":"01","areaid":"9800000000005141","code":"169"},{"typeName":"散台","id":"9800000000153817","mincapacity":0,"maxcapacity":0,"defcapacity":2,"areaname":"大厅","typeid":"101","name":"170","areacode":"01","areaid":"9800000000005141","code":"170"},{"typeName":"散台","id":"9800000000153818","mincapacity":0,"maxcapacity":0,"defcapacity":2,"areaname":"大厅","typeid":"101","name":"171","areacode":"01","areaid":"9800000000005141","code":"171"},{"typeName":"散台","id":"9800000000153819","mincapacity":0,"maxcapacity":0,"defcapacity":2,"areaname":"大厅","typeid":"101","name":"172","areacode":"01","areaid":"9800000000005141","code":"172"},{"typeName":"散台","id":"9800000000153820","mincapacity":0,"maxcapacity":0,"defcapacity":2,"areaname":"大厅","typeid":"101","name":"173","areacode":"01","areaid":"9800000000005141","code":"173"},{"typeName":"散台","id":"9800000000153821","mincapacity":0,"maxcapacity":0,"defcapacity":2,"areaname":"大厅","typeid":"101","name":"174","areacode":"01","areaid":"9800000000005141","code":"174"},{"typeName":"散台","id":"9800000000153822","mincapacity":0,"maxcapacity":0,"defcapacity":2,"areaname":"大厅","typeid":"101","name":"175","areacode":"01","areaid":"9800000000005141","code":"175"},{"typeName":"散台","id":"9800000000153823","mincapacity":0,"maxcapacity":0,"defcapacity":2,"areaname":"大厅","typeid":"101","name":"176","areacode":"01","areaid":"9800000000005141","code":"176"},{"typeName":"散台","id":"9800000000153824","mincapacity":0,"maxcapacity":0,"defcapacity":2,"areaname":"大厅","typeid":"101","name":"177","areacode":"01","areaid":"9800000000005141","code":"177"},{"typeName":"散台","id":"9800000000153825","mincapacity":0,"maxcapacity":0,"defcapacity":2,"areaname":"大厅","typeid":"101","name":"178","areacode":"01","areaid":"9800000000005141","code":"178"},{"typeName":"散台","id":"9800000000153826","mincapacity":0,"maxcapacity":0,"defcapacity":2,"areaname":"大厅","typeid":"101","name":"179","areacode":"01","areaid":"9800000000005141","code":"179"},{"typeName":"散台","id":"9800000000153827","mincapacity":0,"maxcapacity":0,"defcapacity":2,"areaname":"大厅","typeid":"101","name":"180","areacode":"01","areaid":"9800000000005141","code":"180"},{"typeName":"散台","id":"9800000000153828","mincapacity":0,"maxcapacity":0,"defcapacity":2,"areaname":"大厅","typeid":"101","name":"181","areacode":"01","areaid":"9800000000005141","code":"181"},{"typeName":"散台","id":"9800000000153829","mincapacity":0,"maxcapacity":0,"defcapacity":2,"areaname":"大厅","typeid":"101","name":"182","areacode":"01","areaid":"9800000000005141","code":"182"},{"typeName":"散台","id":"9800000000153830","mincapacity":0,"maxcapacity":0,"defcapacity":2,"areaname":"大厅","typeid":"101","name":"183","areacode":"01","areaid":"9800000000005141","code":"183"},{"typeName":"散台","id":"9800000000153831","mincapacity":0,"maxcapacity":0,"defcapacity":2,"areaname":"大厅","typeid":"101","name":"184","areacode":"01","areaid":"9800000000005141","code":"184"},{"typeName":"散台","id":"9800000000153832","mincapacity":0,"maxcapacity":0,"defcapacity":2,"areaname":"大厅","typeid":"101","name":"185","areacode":"01","areaid":"9800000000005141","code":"185"},{"typeName":"散台","id":"9800000000153833","mincapacity":0,"maxcapacity":0,"defcapacity":2,"areaname":"大厅","typeid":"101","name":"186","areacode":"01","areaid":"9800000000005141","code":"186"},{"typeName":"散台","id":"9800000000153834","mincapacity":0,"maxcapacity":0,"defcapacity":2,"areaname":"大厅","typeid":"101","name":"187","areacode":"01","areaid":"9800000000005141","code":"187"},{"typeName":"散台","id":"9800000000153835","mincapacity":0,"maxcapacity":0,"defcapacity":2,"areaname":"大厅","typeid":"101","name":"188","areacode":"01","areaid":"9800000000005141","code":"188"},{"typeName":"散台","id":"9800000000153836","mincapacity":0,"maxcapacity":0,"defcapacity":2,"areaname":"大厅","typeid":"101","name":"189","areacode":"01","areaid":"9800000000005141","code":"189"},{"typeName":"散台","id":"9800000000153837","mincapacity":0,"maxcapacity":0,"defcapacity":2,"areaname":"大厅","typeid":"101","name":"190","areacode":"01","areaid":"9800000000005141","code":"190"},{"typeName":"散台","id":"9800000000153838","mincapacity":0,"maxcapacity":0,"defcapacity":2,"areaname":"大厅","typeid":"101","name":"191","areacode":"01","areaid":"9800000000005141","code":"191"},{"typeName":"散台","id":"9800000000153839","mincapacity":0,"maxcapacity":0,"defcapacity":2,"areaname":"大厅","typeid":"101","name":"192","areacode":"01","areaid":"9800000000005141","code":"192"},{"typeName":"散台","id":"9800000000153840","mincapacity":0,"maxcapacity":0,"defcapacity":2,"areaname":"大厅","typeid":"101","name":"193","areacode":"01","areaid":"9800000000005141","code":"193"},{"typeName":"散台","id":"9800000000153841","mincapacity":0,"maxcapacity":0,"defcapacity":2,"areaname":"大厅","typeid":"101","name":"194","areacode":"01","areaid":"9800000000005141","code":"194"},{"typeName":"散台","id":"9800000000153842","mincapacity":0,"maxcapacity":0,"defcapacity":2,"areaname":"大厅","typeid":"101","name":"195","areacode":"01","areaid":"9800000000005141","code":"195"},{"typeName":"散台","id":"9800000000153843","mincapacity":0,"maxcapacity":0,"defcapacity":2,"areaname":"大厅","typeid":"101","name":"196","areacode":"01","areaid":"9800000000005141","code":"196"},{"typeName":"散台","id":"9800000000153844","mincapacity":0,"maxcapacity":0,"defcapacity":2,"areaname":"大厅","typeid":"101","name":"197","areacode":"01","areaid":"9800000000005141","code":"197"},{"typeName":"散台","id":"9800000000153845","mincapacity":0,"maxcapacity":0,"defcapacity":2,"areaname":"大厅","typeid":"101","name":"198","areacode":"01","areaid":"9800000000005141","code":"198"},{"typeName":"散台","id":"9800000000153846","mincapacity":0,"maxcapacity":0,"defcapacity":2,"areaname":"大厅","typeid":"101","name":"199","areacode":"01","areaid":"9800000000005141","code":"199"},{"typeName":"散台","id":"9800000000153847","mincapacity":0,"maxcapacity":0,"defcapacity":2,"areaname":"大厅","typeid":"101","name":"200","areacode":"01","areaid":"9800000000005141","code":"200"},{"typeName":"散台","id":"9800000000153848","mincapacity":0,"maxcapacity":0,"defcapacity":2,"areaname":"大厅","typeid":"101","name":"201","areacode":"01","areaid":"9800000000005141","code":"201"},{"typeName":"散台","id":"9800000000153849","mincapacity":0,"maxcapacity":0,"defcapacity":2,"areaname":"大厅","typeid":"101","name":"202","areacode":"01","areaid":"9800000000005141","code":"202"},{"typeName":"散台","id":"9800000000153850","mincapacity":0,"maxcapacity":0,"defcapacity":2,"areaname":"大厅","typeid":"101","name":"203","areacode":"01","areaid":"9800000000005141","code":"203"},{"typeName":"散台","id":"9800000000153851","mincapacity":0,"maxcapacity":0,"defcapacity":2,"areaname":"大厅","typeid":"101","name":"204","areacode":"01","areaid":"9800000000005141","code":"204"},{"typeName":"散台","id":"9800000000153852","mincapacity":0,"maxcapacity":0,"defcapacity":2,"areaname":"大厅","typeid":"101","name":"205","areacode":"01","areaid":"9800000000005141","code":"205"},{"typeName":"散台","id":"9800000000153853","mincapacity":0,"maxcapacity":0,"defcapacity":2,"areaname":"大厅","typeid":"101","name":"206","areacode":"01","areaid":"9800000000005141","code":"206"},{"typeName":"散台","id":"9800000000153854","mincapacity":0,"maxcapacity":0,"defcapacity":2,"areaname":"大厅","typeid":"101","name":"207","areacode":"01","areaid":"9800000000005141","code":"207"},{"typeName":"散台","id":"9800000000153855","mincapacity":0,"maxcapacity":0,"defcapacity":2,"areaname":"大厅","typeid":"101","name":"208","areacode":"01","areaid":"9800000000005141","code":"208"},{"typeName":"散台","id":"9800000000153856","mincapacity":0,"maxcapacity":0,"defcapacity":2,"areaname":"大厅","typeid":"101","name":"209","areacode":"01","areaid":"9800000000005141","code":"209"},{"typeName":"散台","id":"9800000000153857","mincapacity":0,"maxcapacity":0,"defcapacity":2,"areaname":"大厅","typeid":"101","name":"210","areacode":"01","areaid":"9800000000005141","code":"210"}]